{"type": "FeatureCollection", "features": [ {"type": "Feature", "properties": {"norad_id": 60989, "name": "SENTINEL-2C", "group": "resource", "lat": 80.62997208196253, "lon": -42.22517927478731, "alt_km": 780.5819998948955, "timestamp": "2025-12-25T11:37:44.079638+00:00", "meta": {"OBJECT_NAME": "SENTINEL-2C", "OBJECT_ID": "2024-157A", "EPOCH": "2025-12-25T04:28:44.329152", "MEAN_MOTION": 14.30817321, "ECCENTRICITY": 0.0001388, "INCLINATION": 98.5666, "RA_OF_ASC_NODE": 71.489, "ARG_OF_PERICENTER": 103.3683, "MEAN_ANOMALY": 256.7655, "EPHEMERIS_TYPE": 0, "CLASSIFICATION_TYPE": "U", "NORAD_CAT_ID": 60989, "ELEMENT_SET_NO": 999, "REV_AT_EPOCH": 6810, "BSTAR": 7.5433e-05, "MEAN_MOTION_DOT": 1.54e-06, "MEAN_MOTION_DDOT": 0}, "tle": {"line1": "1 60989U 24157A   25359.18662418  .00000154  00000+0  75433-4 0  9996", "line2": "2 60989  98.5666  71.4890 0001388 103.3683 256.7655 14.30817321 68108"}}, "geometry": {"type": "Point", "coordinates": [-42.22517927478731, 80.62997208196253]}}, {"type": "Feature", "properties": {"norad_id": 61735, "name": "IONOSFERA-M 1", "group": "resource", "lat": -10.921963408161341, "lon": -129.06458407564008, "alt_km": 820.1666570073239, "timestamp": "2025-12-25T11:37:44.079650+00:00", "meta": {"OBJECT_NAME": "IONOSFERA-M 1", "OBJECT_ID": "2024-199A", "EPOCH": "2025-12-25T04:55:45.339168", "MEAN_MOTION": 14.22716748, "ECCENTRICITY": 3.43e-05, "INCLINATION": 98.7403, "RA_OF_ASC_NODE": 228.9574, "ARG_OF_PERICENTER": 5.3507, "MEAN_ANOMALY": 354.7674, "EPHEMERIS_TYPE": 0, "CLASSIFICATION_TYPE": "U", "NORAD_CAT_ID": 61735, "ELEMENT_SET_NO": 999, "REV_AT_EPOCH": 10296, "BSTAR": 4.8397e-05, "MEAN_MOTION_DOT": 6.4e-07, "MEAN_MOTION_DDOT": 0}, "tle": {"line1": "1 61735U 24199A   25359.20538587  .00000064  00000+0  48397-4 0  9993", "line2": "2 61735  98.7403 228.9574 0000343   5.3507 354.7674 14.22716748102968"}}, "geometry": {"type": "Point", "coordinates": [-129.06458407564008, -10.921963408161341]}}, {"type": "Feature", "properties": {"norad_id": 61736, "name": "IONOSFERA-M 2", "group": "resource", "lat": 7.940251117346389, "lon": 50.376050880472654, "alt_km": 817.7259149835745, "timestamp": "2025-12-25T11:37:44.079660+00:00", "meta": {"OBJECT_NAME": "IONOSFERA-M 2", "OBJECT_ID": "2024-199B", "EPOCH": "2025-12-25T04:04:20.936928", "MEAN_MOTION": 14.22718893, "ECCENTRICITY": 0.0001859, "INCLINATION": 98.7395, "RA_OF_ASC_NODE": 228.8344, "ARG_OF_PERICENTER": 94.4675, "MEAN_ANOMALY": 265.6715, "EPHEMERIS_TYPE": 0, "CLASSIFICATION_TYPE": "U", "NORAD_CAT_ID": 61736, "ELEMENT_SET_NO": 999, "REV_AT_EPOCH": 10608, "BSTAR": 4.6856e-05, "MEAN_MOTION_DOT": 6.1e-07, "MEAN_MOTION_DDOT": 0}, "tle": {"line1": "1 61736U 24199B   25359.16968677  .00000061  00000+0  46856-4 0  9991", "line2": "2 61736  98.7395 228.8344 0001859  94.4675 265.6715 14.22718893106087"}}, "geometry": {"type": "Point", "coordinates": [50.376050880472654, 7.940251117346389]}}, {"type": "Feature", "properties": {"norad_id": 63772, "name": "BIOMASS", "group": "resource", "lat": -74.68673765550167, "lon": -26.89758227162071, "alt_km": 676.9853462935707, "timestamp": "2025-12-25T11:37:44.079670+00:00", "meta": {"OBJECT_NAME": "BIOMASS", "OBJECT_ID": "2025-090A", "EPOCH": "2025-12-25T00:38:36.523104", "MEAN_MOTION": 14.67537569, "ECCENTRICITY": 0.0001045, "INCLINATION": 98.0693, "RA_OF_ASC_NODE": 183.8574, "ARG_OF_PERICENTER": 84.1343, "MEAN_ANOMALY": 275.998, "EPHEMERIS_TYPE": 0, "CLASSIFICATION_TYPE": "U", "NORAD_CAT_ID": 63772, "ELEMENT_SET_NO": 999, "REV_AT_EPOCH": 3514, "BSTAR": 0.00023519, "MEAN_MOTION_DOT": 1.286e-05, "MEAN_MOTION_DDOT": 0}, "tle": {"line1": "1 63772U 25090A   25359.02681161  .00001286  00000+0  23519-3 0  9999", "line2": "2 63772  98.0693 183.8574 0001045  84.1343 275.9980 14.67537569 35147"}}, "geometry": {"type": "Point", "coordinates": [-26.89758227162071, -74.68673765550167]}}, {"type": "Feature", "properties": {"norad_id": 64694, "name": "GOSAT-GW (IBUKI GW)", "group": "resource", "lat": 70.66467025372543, "lon": 138.53468216003856, "alt_km": 661.1231952666631, "timestamp": "2025-12-25T11:37:44.079680+00:00", "meta": {"OBJECT_NAME": "GOSAT-GW (IBUKI GW)", "OBJECT_ID": "2025-141A", "EPOCH": "2025-12-25T04:35:42.196704", "MEAN_MOTION": 14.67559544, "ECCENTRICITY": 0.0001435, "INCLINATION": 98.0439, "RA_OF_ASC_NODE": 294.4795, "ARG_OF_PERICENTER": 82.294, "MEAN_ANOMALY": 277.8427, "EPHEMERIS_TYPE": 0, "CLASSIFICATION_TYPE": "U", "NORAD_CAT_ID": 64694, "ELEMENT_SET_NO": 999, "REV_AT_EPOCH": 2632, "BSTAR": 0.00019285, "MEAN_MOTION_DOT": 1.046e-05, "MEAN_MOTION_DDOT": 0}, "tle": {"line1": "1 64694U 25141A   25359.19146061  .00001046  00000+0  19285-3 0  9992", "line2": "2 64694  98.0439 294.4795 0001435  82.2940 277.8427 14.67559544 26322"}}, "geometry": {"type": "Point", "coordinates": [138.53468216003856, 70.66467025372543]}}, {"type": "Feature", "properties": {"norad_id": 64876, "name": "IONOSFERA-M 3", "group": "resource", "lat": 22.124415324468032, "lon": 144.50991966949044, "alt_km": 820.7761126364112, "timestamp": "2025-12-25T11:37:44.079690+00:00", "meta": {"OBJECT_NAME": "IONOSFERA-M 3", "OBJECT_ID": "2025-155A", "EPOCH": "2025-12-25T04:07:58.641600", "MEAN_MOTION": 14.21443963, "ECCENTRICITY": 0.0001843, "INCLINATION": 98.58, "RA_OF_ASC_NODE": 320.6874, "ARG_OF_PERICENTER": 39.9173, "MEAN_ANOMALY": 320.214, "EPHEMERIS_TYPE": 0, "CLASSIFICATION_TYPE": "U", "NORAD_CAT_ID": 64876, "ELEMENT_SET_NO": 999, "REV_AT_EPOCH": 2168, "BSTAR": 5.5498e-05, "MEAN_MOTION_DOT": 7.9e-07, "MEAN_MOTION_DDOT": 0}, "tle": {"line1": "1 64876U 25155A   25359.17220650  .00000079  00000+0  55498-4 0  9996", "line2": "2 64876  98.5800 320.6874 0001843  39.9173 320.2140 14.21443963 21687"}}, "geometry": {"type": "Point", "coordinates": [144.50991966949044, 22.124415324468032]}}, {"type": "Feature", "properties": {"norad_id": 64877, "name": "IONOSFERA-M 4", "group": "resource", "lat": -21.671898067048538, "lon": -35.65010785673043, "alt_km": 825.4616663295674, "timestamp": "2025-12-25T11:37:44.079700+00:00", "meta": {"OBJECT_NAME": "IONOSFERA-M 4", "OBJECT_ID": "2025-155B", "EPOCH": "2025-12-25T04:58:27.533568", "MEAN_MOTION": 14.21445115, "ECCENTRICITY": 0.0001277, "INCLINATION": 98.5801, "RA_OF_ASC_NODE": 320.6409, "ARG_OF_PERICENTER": 51.5824, "MEAN_ANOMALY": 308.5469, "EPHEMERIS_TYPE": 0, "CLASSIFICATION_TYPE": "U", "NORAD_CAT_ID": 64877, "ELEMENT_SET_NO": 999, "REV_AT_EPOCH": 2168, "BSTAR": 5.9133e-05, "MEAN_MOTION_DOT": 8.7e-07, "MEAN_MOTION_DDOT": 0}, "tle": {"line1": "1 64877U 25155B   25359.20726312  .00000087  00000+0  59133-4 0  9996", "line2": "2 64877  98.5801 320.6409 0001277  51.5824 308.5469 14.21445115 21681"}}, "geometry": {"type": "Point", "coordinates": [-35.65010785673043, -21.671898067048538]}}, {"type": "Feature", "properties": {"norad_id": 64899, "name": "MICROCARB", "group": "resource", "lat": -67.03359643833288, "lon": 94.0087734471747, "alt_km": 674.0477492630143, "timestamp": "2025-12-25T11:37:44.079710+00:00", "meta": {"OBJECT_NAME": "MICROCARB", "OBJECT_ID": "2025-156A", "EPOCH": "2025-12-24T22:53:21.567840", "MEAN_MOTION": 14.72076253, "ECCENTRICITY": 0.0017635, "INCLINATION": 98.001, "RA_OF_ASC_NODE": 74.1026, "ARG_OF_PERICENTER": 108.1689, "MEAN_ANOMALY": 252.144, "EPHEMERIS_TYPE": 0, "CLASSIFICATION_TYPE": "U", "NORAD_CAT_ID": 64899, "ELEMENT_SET_NO": 999, "REV_AT_EPOCH": 2233, "BSTAR": 0.00012397, "MEAN_MOTION_DOT": 7.31e-06, "MEAN_MOTION_DDOT": 0}, "tle": {"line1": "1 64899U 25156A   25358.95372185  .00000731  00000+0  12397-3 0  9993", "line2": "2 64899  98.0010  74.1026 0017635 108.1689 252.1440 14.72076253 22336"}}, "geometry": {"type": "Point", "coordinates": [94.0087734471747, -67.03359643833288]}}, {"type": "Feature", "properties": {"norad_id": 64900, "name": "CO3D 3", "group": "resource", "lat": 17.559078119485545, "lon": 73.30105837643201, "alt_km": 505.18932410014986, "timestamp": "2025-12-25T11:37:44.079720+00:00", "meta": {"OBJECT_NAME": "CO3D 3", "OBJECT_ID": "2025-156B", "EPOCH": "2025-12-25T05:13:56.010432", "MEAN_MOTION": 15.20194084, "ECCENTRICITY": 0.0001384, "INCLINATION": 97.4335, "RA_OF_ASC_NODE": 75.4062, "ARG_OF_PERICENTER": 69.9929, "MEAN_ANOMALY": 290.1455, "EPHEMERIS_TYPE": 0, "CLASSIFICATION_TYPE": "U", "NORAD_CAT_ID": 64900, "ELEMENT_SET_NO": 999, "REV_AT_EPOCH": 2310, "BSTAR": 0.00030304, "MEAN_MOTION_DOT": 6.497e-05, "MEAN_MOTION_DDOT": 0}, "tle": {"line1": "1 64900U 25156B   25359.21800938  .00006497  00000+0  30304-3 0  9991", "line2": "2 64900  97.4335  75.4062 0001384  69.9929 290.1455 15.20194084 23102"}}, "geometry": {"type": "Point", "coordinates": [73.30105837643201, 17.559078119485545]}}, {"type": "Feature", "properties": {"norad_id": 64901, "name": "CO3D 4", "group": "resource", "lat": 16.815968096523935, "lon": 73.40739727683513, "alt_km": 506.5982722294293, "timestamp": "2025-12-25T11:37:44.079730+00:00", "meta": {"OBJECT_NAME": "CO3D 4", "OBJECT_ID": "2025-156C", "EPOCH": "2025-12-25T03:39:21.157344", "MEAN_MOTION": 15.20222514, "ECCENTRICITY": 0.0001491, "INCLINATION": 97.4335, "RA_OF_ASC_NODE": 75.3414, "ARG_OF_PERICENTER": 157.6472, "MEAN_ANOMALY": 202.4828, "EPHEMERIS_TYPE": 0, "CLASSIFICATION_TYPE": "U", "NORAD_CAT_ID": 64901, "ELEMENT_SET_NO": 999, "REV_AT_EPOCH": 2309, "BSTAR": 0.00020287, "MEAN_MOTION_DOT": 4.329e-05, "MEAN_MOTION_DDOT": 0}, "tle": {"line1": "1 64901U 25156C   25359.15232821  .00004329  00000+0  20287-3 0  9996", "line2": "2 64901  97.4335  75.3414 0001491 157.6472 202.4828 15.20222514 23098"}}, "geometry": {"type": "Point", "coordinates": [73.40739727683513, 16.815968096523935]}}]}